[{"OBJECT_NAME":"JAY-C","OBJECT_ID":"2025-009BM","EPOCH":"2026-03-09T21:49:25.741344","MEAN_MOTION":15.21616071,"ECCENTRICITY":0.00037153,"INCLINATION":97.4007,"RA_OF_ASC_NODE":149.4579,"ARG_OF_PERICENTER":347.8678,"MEAN_ANOMALY":12.2468,"EPHEMERIS_TYPE":0,"CLASSIFICATION_TYPE":"U","NORAD_CAT_ID":62668,"ELEMENT_SET_NO":999,"REV_AT_EPOCH":12127,"BSTAR":0.00023436914,"MEAN_MOTION_DOT":5.223e-5,"MEAN_MOTION_DDOT":0},{"OBJECT_NAME":"FOSSASAT-2E18 (TAT-A)","OBJECT_ID":"2025-009CF","EPOCH":"2026-03-09T17:01:45.499296","MEAN_MOTION":15.20457243,"ECCENTRICITY":0.00051914,"INCLINATION":97.4018,"RA_OF_ASC_NODE":148.8446,"ARG_OF_PERICENTER":339.5047,"MEAN_ANOMALY":20.598,"EPHEMERIS_TYPE":0,"CLASSIFICATION_TYPE":"U","NORAD_CAT_ID":62686,"ELEMENT_SET_NO":999,"REV_AT_EPOCH":6357,"BSTAR":0.00019425046,"MEAN_MOTION_DOT":4.172e-5,"MEAN_MOTION_DDOT":0}]
